{
  "type": "FeatureCollection",
  "features": [
    {
      "type": "Feature",
      "properties": {
        "norad_id": 41948,
        "name": "CARTOSAT-2D",
        "group": "resource",
        "lat": -57.75097108156346,
        "lon": -138.8881234794555,
        "alt_km": 515.7920581903227,
        "timestamp": "2025-12-21T16:47:54.386378+00:00",
        "meta_object_name": "CARTOSAT-2D",
        "meta_object_id": "2017-008A",
        "meta_epoch": "2025-12-21T12:35:28.114944",
        "meta_mean_motion": 15.19338725,
        "meta_eccentricity": 0.0005327,
        "meta_inclination": 97.4377,
        "meta_ra_of_asc_node": 52.8891,
        "meta_arg_of_pericenter": 136.0456,
        "meta_mean_anomaly": 224.1203,
        "meta_ephemeris_type": 0,
        "meta_classification_type": "U",
        "meta_norad_cat_id": 41948,
        "meta_element_set_no": 999,
        "meta_rev_at_epoch": 49060,
        "meta_bstar": 0.00024999,
        "meta_mean_motion_dot": 5.216e-05,
        "meta_mean_motion_ddot": 0,
        "tle_line1": "1 41948U 17008A   25355.52463096  .00005216  00000+0  24999-3 0  9996",
        "tle_line2": "2 41948  97.4377  52.8891 0005327 136.0456 224.1203 15.19338725490607"
      },
      "geometry": {
        "type": "Point",
        "coordinates": [
          -138.8881234794555,
          -57.75097108156346
        ]
      }
    },
    {
      "type": "Feature",
      "properties": {
        "norad_id": 42063,
        "name": "SENTINEL-2B",
        "group": "resource",
        "lat": -50.514170963753386,
        "lon": -122.5269346606084,
        "alt_km": 796.5449880872793,
        "timestamp": "2025-12-21T16:47:54.386389+00:00",
        "meta_object_name": "SENTINEL-2B",
        "meta_object_id": "2017-013A",
        "meta_epoch": "2025-12-21T12:21:52.065216",
        "meta_mean_motion": 14.30814768,
        "meta_eccentricity": 0.0001201,
        "meta_inclination": 98.5712,
        "meta_ra_of_asc_node": 67.8384,
        "meta_arg_of_pericenter": 92.3167,
        "meta_mean_anomaly": 267.8154,
        "meta_ephemeris_type": 0,
        "meta_classification_type": "U",
        "meta_norad_cat_id": 42063,
        "meta_element_set_no": 999,
        "meta_rev_at_epoch": 45923,
        "meta_bstar": 0.00015203,
        "meta_mean_motion_dot": 3.55e-06,
        "meta_mean_motion_ddot": 0,
        "tle_line1": "1 42063U 17013A   25355.51518594  .00000355  00000+0  15203-3 0  9991",
        "tle_line2": "2 42063  98.5712  67.8384 0001201  92.3167 267.8154 14.30814768459235"
      },
      "geometry": {
        "type": "Point",
        "coordinates": [
          -122.5269346606084,
          -50.514170963753386
        ]
      }
    },
    {
      "type": "Feature",
      "properties": {
        "norad_id": 42767,
        "name": "CARTOSAT-2E",
        "group": "resource",
        "lat": 32.3177076196228,
        "lon": -122.07821699234144,
        "alt_km": 504.94492002216157,
        "timestamp": "2025-12-21T16:47:54.386399+00:00",
        "meta_object_name": "CARTOSAT-2E",
        "meta_object_id": "2017-036C",
        "meta_epoch": "2025-12-21T11:24:36.331200",
        "meta_mean_motion": 15.19279612,
        "meta_eccentricity": 0.0002577,
        "meta_inclination": 97.4548,
        "meta_ra_of_asc_node": 52.9487,
        "meta_arg_of_pericenter": 193.7325,
        "meta_mean_anomaly": 166.3839,
        "meta_ephemeris_type": 0,
        "meta_classification_type": "U",
        "meta_norad_cat_id": 42767,
        "meta_element_set_no": 999,
        "meta_rev_at_epoch": 47116,
        "meta_bstar": 0.00025563,
        "meta_mean_motion_dot": 5.325e-05,
        "meta_mean_motion_ddot": 0,
        "tle_line1": "1 42767U 17036C   25355.47542050  .00005325  00000+0  25563-3 0  9998",
        "tle_line2": "2 42767  97.4548  52.9487 0002577 193.7325 166.3839 15.19279612471169"
      },
      "geometry": {
        "type": "Point",
        "coordinates": [
          -122.07821699234144,
          32.3177076196228
        ]
      }
    },
    {
      "type": "Feature",
      "properties": {
        "norad_id": 42920,
        "name": "FORMOSAT-5",
        "group": "resource",
        "lat": 20.946152517900554,
        "lon": -106.97963349128045,
        "alt_km": 725.7035436598926,
        "timestamp": "2025-12-21T16:47:54.386410+00:00",
        "meta_object_name": "FORMOSAT-5",
        "meta_object_id": "2017-049A",
        "meta_epoch": "2025-12-21T11:06:08.640864",
        "meta_mean_motion": 14.50765229,
        "meta_eccentricity": 0.0009828,
        "meta_inclination": 98.2443,
        "meta_ra_of_asc_node": 69.6064,
        "meta_arg_of_pericenter": 271.8294,
        "meta_mean_anomaly": 88.1775,
        "meta_ephemeris_type": 0,
        "meta_classification_type": "U",
        "meta_norad_cat_id": 42920,
        "meta_element_set_no": 999,
        "meta_rev_at_epoch": 44090,
        "meta_bstar": 5.3867e-05,
        "meta_mean_motion_dot": 1.68e-06,
        "meta_mean_motion_ddot": 0,
        "tle_line1": "1 42920U 17049A   25355.46260001  .00000168  00000+0  53867-4 0  9994",
        "tle_line2": "2 42920  98.2443  69.6064 0009828 271.8294  88.1775 14.50765229440904"
      },
      "geometry": {
        "type": "Point",
        "coordinates": [
          -106.97963349128045,
          20.946152517900554
        ]
      }
    },
    {
      "type": "Feature",
      "properties": {
        "norad_id": 42969,
        "name": "SENTINEL-5P",
        "group": "resource",
        "lat": -79.92205623479862,
        "lon": 53.79831395131021,
        "alt_km": 835.0350920585834,
        "timestamp": "2025-12-21T16:47:54.386421+00:00",
        "meta_object_name": "SENTINEL-5P",
        "meta_object_id": "2017-064A",
        "meta_epoch": "2025-12-21T10:28:43.184352",
        "meta_mean_motion": 14.19519486,
        "meta_eccentricity": 0.0001023,
        "meta_inclination": 98.7798,
        "meta_ra_of_asc_node": 293.944,
        "meta_arg_of_pericenter": 91.0095,
        "meta_mean_anomaly": 269.1198,
        "meta_ephemeris_type": 0,
        "meta_classification_type": "U",
        "meta_norad_cat_id": 42969,
        "meta_element_set_no": 999,
        "meta_rev_at_epoch": 42434,
        "meta_bstar": 4.8428e-05,
        "meta_mean_motion_dot": 5.8e-07,
        "meta_mean_motion_ddot": 0,
        "tle_line1": "1 42969U 17064A   25355.43661093  .00000058  00000+0  48428-4 0  9992",
        "tle_line2": "2 42969  98.7798 293.9440 0001023  91.0095 269.1198 14.19519486424342"
      },
      "geometry": {
        "type": "Point",
        "coordinates": [
          53.79831395131021,
          -79.92205623479862
        ]
      }
    },
    {
      "type": "Feature",
      "properties": {
        "norad_id": 42987,
        "name": "SKYSAT-C11",
        "group": "resource",
        "lat": -4.40263678007004,
        "lon": -47.15881898851239,
        "alt_km": 426.79700783965745,
        "timestamp": "2025-12-21T16:47:54.386431+00:00",
        "meta_object_name": "SKYSAT-C11",
        "meta_object_id": "2017-068A",
        "meta_epoch": "2025-12-21T08:14:47.895360",
        "meta_mean_motion": 15.47785613,
        "meta_eccentricity": 0.0001167,
        "meta_inclination": 97.4149,
        "meta_ra_of_asc_node": 133.0504,
        "meta_arg_of_pericenter": 99.4516,
        "meta_mean_anomaly": 260.6866,
        "meta_ephemeris_type": 0,
        "meta_classification_type": "U",
        "meta_norad_cat_id": 42987,
        "meta_element_set_no": 999,
        "meta_rev_at_epoch": 45564,
        "meta_bstar": 0.00034865,
        "meta_mean_motion_dot": 0.00018009,
        "meta_mean_motion_ddot": 0,
        "tle_line1": "1 42987U 17068A   25355.34360990  .00018009  00000+0  34865-3 0  9992",
        "tle_line2": "2 42987  97.4149 133.0504 0001167  99.4516 260.6866 15.47785613455646"
      },
      "geometry": {
        "type": "Point",
        "coordinates": [
          -47.15881898851239,
          -4.40263678007004
        ]
      }
    },
    {
      "type": "Feature",
      "properties": {
        "norad_id": 42988,
        "name": "SKYSAT-C10",
        "group": "resource",
        "lat": 52.898770315238,
        "lon": -43.49182110621617,
        "alt_km": 461.751236132277,
        "timestamp": "2025-12-21T16:47:54.386442+00:00",
        "meta_object_name": "SKYSAT-C10",
        "meta_object_id": "2017-068B",
        "meta_epoch": "2025-12-21T08:24:44.736192",
        "meta_mean_motion": 15.32231189,
        "meta_eccentricity": 0.0005385,
        "meta_inclination": 97.4268,
        "meta_ra_of_asc_node": 126.2262,
        "meta_arg_of_pericenter": 79.9672,
        "meta_mean_anomaly": 280.2178,
        "meta_ephemeris_type": 0,
        "meta_classification_type": "U",
        "meta_norad_cat_id": 42988,
        "meta_element_set_no": 999,
        "meta_rev_at_epoch": 45511,
        "meta_bstar": 0.00027627,
        "meta_mean_motion_dot": 8.523e-05,
        "meta_mean_motion_ddot": 0,
        "tle_line1": "1 42988U 17068B   25355.35051778  .00008523  00000+0  27627-3 0  9993",
        "tle_line2": "2 42988  97.4268 126.2262 0005385  79.9672 280.2178 15.32231189455110"
      },
      "geometry": {
        "type": "Point",
        "coordinates": [
          -43.49182110621617,
          52.898770315238
        ]
      }
    }
  ]
}